[{"OBJECT_NAME":"NUSTAR","OBJECT_ID":"2012-031A","EPOCH":"2026-03-10T00:00:02.999808","MEAN_MOTION":15.07728841,"ECCENTRICITY":0.00071224,"INCLINATION":6.0266,"RA_OF_ASC_NODE":57.5732,"ARG_OF_PERICENTER":70.6924,"MEAN_ANOMALY":331.0724,"EPHEMERIS_TYPE":0,"CLASSIFICATION_TYPE":"U","NORAD_CAT_ID":38358,"ELEMENT_SET_NO":999,"REV_AT_EPOCH":130,"BSTAR":0.0011080621,"MEAN_MOTION_DOT":0.00018332,"MEAN_MOTION_DDOT":0},{"OBJECT_NAME":"STARLINK-4506","OBJECT_ID":"2022-101AD","EPOCH":"2026-03-09T09:28:50.249856","MEAN_MOTION":15.08845579,"ECCENTRICITY":0.00014825,"INCLINATION":53.2176,"RA_OF_ASC_NODE":65.4516,"ARG_OF_PERICENTER":94.2524,"MEAN_ANOMALY":265.8638,"EPHEMERIS_TYPE":0,"CLASSIFICATION_TYPE":"U","NORAD_CAT_ID":53554,"ELEMENT_SET_NO":999,"REV_AT_EPOCH":19626,"BSTAR":-5.6288253e-5,"MEAN_MOTION_DOT":-1.184e-5,"MEAN_MOTION_DDOT":0}]
